[{"OBJECT_NAME":"ONEWEB-0712","OBJECT_ID":"2022-166AQ","EPOCH":"2026-01-11T03:01:52.009824","MEAN_MOTION":13.16594471,"ECCENTRICITY":0.00016602,"INCLINATION":87.9036,"RA_OF_ASC_NODE":260.0438,"ARG_OF_PERICENTER":57.0529,"MEAN_ANOMALY":303.0761,"EPHEMERIS_TYPE":0,"CLASSIFICATION_TYPE":"U","NORAD_CAT_ID":54680,"ELEMENT_SET_NO":999,"REV_AT_EPOCH":15139,"BSTAR":0.0003877315,"MEAN_MOTION_DOT":1.61e-6,"MEAN_MOTION_DDOT":0},{"OBJECT_NAME":"ONEWEB-0714","OBJECT_ID":"2022-166AR","EPOCH":"2026-01-11T04:18:43.961472","MEAN_MOTION":13.21827733,"ECCENTRICITY":0.00017745,"INCLINATION":87.922,"RA_OF_ASC_NODE":275.3029,"ARG_OF_PERICENTER":70.8845,"MEAN_ANOMALY":289.2481,"EPHEMERIS_TYPE":0,"CLASSIFICATION_TYPE":"U","NORAD_CAT_ID":54681,"ELEMENT_SET_NO":999,"REV_AT_EPOCH":15079,"BSTAR":-4.358799e-6,"MEAN_MOTION_DOT":1.1e-7,"MEAN_MOTION_DDOT":0},{"OBJECT_NAME":"ONEWEB-0532","OBJECT_ID":"2023-004A","EPOCH":"2026-01-11T07:13:34.924224","MEAN_MOTION":13.17650012,"ECCENTRICITY":0.00020543,"INCLINATION":87.9099,"RA_OF_ASC_NODE":37.0451,"ARG_OF_PERICENTER":103.3309,"MEAN_ANOMALY":256.8052,"EPHEMERIS_TYPE":0,"CLASSIFICATION_TYPE":"U","NORAD_CAT_ID":55140,"ELEMENT_SET_NO":999,"REV_AT_EPOCH":14692,"BSTAR":-0.00017494487,"MEAN_MOTION_DOT":-5.5e-7,"MEAN_MOTION_DDOT":0},{"OBJECT_NAME":"ONEWEB-0533","OBJECT_ID":"2023-004B","EPOCH":"2026-01-11T06:09:10.344672","MEAN_MOTION":13.12441013,"ECCENTRICITY":0.000193,"INCLINATION":87.8929,"RA_OF_ASC_NODE":21.8272,"ARG_OF_PERICENTER":87.5042,"MEAN_ANOMALY":272.6308,"EPHEMERIS_TYPE":0,"CLASSIFICATION_TYPE":"U","NORAD_CAT_ID":55141,"ELEMENT_SET_NO":999,"REV_AT_EPOCH":14747,"BSTAR":0.00063127385,"MEAN_MOTION_DOT":2.4e-6,"MEAN_MOTION_DDOT":0},{"OBJECT_NAME":"ONEWEB-0541","OBJECT_ID":"2023-004C","EPOCH":"2026-01-11T03:55:30.778752","MEAN_MOTION":13.11418922,"ECCENTRICITY":0.00017302,"INCLINATION":87.8834,"RA_OF_ASC_NODE":52.3101,"ARG_OF_PERICENTER":101.5321,"MEAN_ANOMALY":258.6001,"EPHEMERIS_TYPE":0,"CLASSIFICATION_TYPE":"U","NORAD_CAT_ID":55142,"ELEMENT_SET_NO":999,"REV_AT_EPOCH":14536,"BSTAR":0.0011400287,"MEAN_MOTION_DOT":4.17e-6,"MEAN_MOTION_DDOT":0},{"OBJECT_NAME":"ONEWEB-0543","OBJECT_ID":"2023-004D","EPOCH":"2026-01-11T00:33:58.233024","MEAN_MOTION":13.18684071,"ECCENTRICITY":0.00017004,"INCLINATION":87.9163,"RA_OF_ASC_NODE":6.6945,"ARG_OF_PERICENTER":77.4824,"MEAN_ANOMALY":282.6498,"EPHEMERIS_TYPE":0,"CLASSIFICATION_TYPE":"U","NORAD_CAT_ID":55143,"ELEMENT_SET_NO":999,"REV_AT_EPOCH":14898,"BSTAR":-0.00015380279,"MEAN_MOTION_DOT":-4.8e-7,"MEAN_MOTION_DDOT":0},{"OBJECT_NAME":"ONEWEB-0544","OBJECT_ID":"2023-004E","EPOCH":"2026-01-11T05:52:16.193568","MEAN_MOTION":13.18686758,"ECCENTRICITY":0.00015204,"INCLINATION":87.917,"RA_OF_ASC_NODE":6.6428,"ARG_OF_PERICENTER":87.5311,"MEAN_ANOMALY":272.5996,"EPHEMERIS_TYPE":0,"CLASSIFICATION_TYPE":"U","NORAD_CAT_ID":55144,"ELEMENT_SET_NO":999,"REV_AT_EPOCH":14901,"BSTAR":-4.2606789e-5,"MEAN_MOTION_DOT":-4.0e-8,"MEAN_MOTION_DDOT":0},{"OBJECT_NAME":"ONEWEB-0560","OBJECT_ID":"2023-004F","EPOCH":"2026-01-11T05:42:45.771264","MEAN_MOTION":13.1868503,"ECCENTRICITY":0.00015393,"INCLINATION":87.9175,"RA_OF_ASC_NODE":6.6323,"ARG_OF_PERICENTER":84.9186,"MEAN_ANOMALY":275.2122,"EPHEMERIS_TYPE":0,"CLASSIFICATION_TYPE":"U","NORAD_CAT_ID":55145,"ELEMENT_SET_NO":999,"REV_AT_EPOCH":14902,"BSTAR":-1.70843e-7,"MEAN_MOTION_DOT":1.3e-7,"MEAN_MOTION_DDOT":0},{"OBJECT_NAME":"ONEWEB-0565","OBJECT_ID":"2023-004G","EPOCH":"2026-01-11T05:33:15.458688","MEAN_MOTION":13.18685497,"ECCENTRICITY":0.00014671,"INCLINATION":87.9164,"RA_OF_ASC_NODE":6.6768,"ARG_OF_PERICENTER":102.3266,"MEAN_ANOMALY":257.803,"EPHEMERIS_TYPE":0,"CLASSIFICATION_TYPE":"U","NORAD_CAT_ID":55146,"ELEMENT_SET_NO":999,"REV_AT_EPOCH":14901,"BSTAR":0.00023339192,"MEAN_MOTION_DOT":1.05e-6,"MEAN_MOTION_DDOT":0},{"OBJECT_NAME":"ONEWEB-0567","OBJECT_ID":"2023-004H","EPOCH":"2026-01-11T05:23:45.234240","MEAN_MOTION":13.18685532,"ECCENTRICITY":0.00014071,"INCLINATION":87.9172,"RA_OF_ASC_NODE":6.6474,"ARG_OF_PERICENTER":94.1414,"MEAN_ANOMALY":265.9879,"EPHEMERIS_TYPE":0,"CLASSIFICATION_TYPE":"U","NORAD_CAT_ID":55147,"ELEMENT_SET_NO":999,"REV_AT_EPOCH":14901,"BSTAR":4.5806741e-5,"MEAN_MOTION_DOT":3.1e-7,"MEAN_MOTION_DDOT":0},{"OBJECT_NAME":"ONEWEB-0569","OBJECT_ID":"2023-004J","EPOCH":"2026-01-11T07:27:34.716672","MEAN_MOTION":13.13469604,"ECCENTRICITY":8.141e-5,"INCLINATION":87.9004,"RA_OF_ASC_NODE":351.3854,"ARG_OF_PERICENTER":71.5642,"MEAN_ANOMALY":288.5575,"EPHEMERIS_TYPE":0,"CLASSIFICATION_TYPE":"U","NORAD_CAT_ID":55148,"ELEMENT_SET_NO":999,"REV_AT_EPOCH":14958,"BSTAR":0.00086593453,"MEAN_MOTION_DOT":3.29e-6,"MEAN_MOTION_DDOT":0},{"OBJECT_NAME":"ONEWEB-0570","OBJECT_ID":"2023-004K","EPOCH":"2026-01-11T05:09:30.410784","MEAN_MOTION":13.18687261,"ECCENTRICITY":0.00019775,"INCLINATION":87.9169,"RA_OF_ASC_NODE":6.6488,"ARG_OF_PERICENTER":102.3064,"MEAN_ANOMALY":257.829,"EPHEMERIS_TYPE":0,"CLASSIFICATION_TYPE":"U","NORAD_CAT_ID":55149,"ELEMENT_SET_NO":999,"REV_AT_EPOCH":14900,"BSTAR":2.158554e-6,"MEAN_MOTION_DOT":1.4e-7,"MEAN_MOTION_DDOT":0},{"OBJECT_NAME":"ONEWEB-0571","OBJECT_ID":"2023-004L","EPOCH":"2026-01-11T01:21:29.605824","MEAN_MOTION":13.1868627,"ECCENTRICITY":8.743e-5,"INCLINATION":87.917,"RA_OF_ASC_NODE":6.6793,"ARG_OF_PERICENTER":129.6841,"MEAN_ANOMALY":230.4368,"EPHEMERIS_TYPE":0,"CLASSIFICATION_TYPE":"U","NORAD_CAT_ID":55150,"ELEMENT_SET_NO":999,"REV_AT_EPOCH":14899,"BSTAR":-6.5818771e-5,"MEAN_MOTION_DOT":-1.3e-7,"MEAN_MOTION_DDOT":0},{"OBJECT_NAME":"ONEWEB-0572","OBJECT_ID":"2023-004M","EPOCH":"2026-01-11T07:57:19.077984","MEAN_MOTION":13.17650047,"ECCENTRICITY":0.00016739,"INCLINATION":87.909,"RA_OF_ASC_NODE":37.0471,"ARG_OF_PERICENTER":99.7027,"MEAN_ANOMALY":260.4293,"EPHEMERIS_TYPE":0,"CLASSIFICATION_TYPE":"U","NORAD_CAT_ID":55151,"ELEMENT_SET_NO":999,"REV_AT_EPOCH":14682,"BSTAR":-3.5966845e-5,"MEAN_MOTION_DOT":-1.0e-8,"MEAN_MOTION_DDOT":0},{"OBJECT_NAME":"ONEWEB-0573","OBJECT_ID":"2023-004N","EPOCH":"2026-01-11T06:39:45.867744","MEAN_MOTION":13.1868687,"ECCENTRICITY":0.00015828,"INCLINATION":87.9164,"RA_OF_ASC_NODE":6.6385,"ARG_OF_PERICENTER":115.9627,"MEAN_ANOMALY":244.1668,"EPHEMERIS_TYPE":0,"CLASSIFICATION_TYPE":"U","NORAD_CAT_ID":55152,"ELEMENT_SET_NO":999,"REV_AT_EPOCH":14901,"BSTAR":0.00032096407,"MEAN_MOTION_DOT":1.39e-6,"MEAN_MOTION_DDOT":0},{"OBJECT_NAME":"ONEWEB-0588","OBJECT_ID":"2023-004P","EPOCH":"2026-01-11T06:30:15.614784","MEAN_MOTION":13.18685807,"ECCENTRICITY":0.00018211,"INCLINATION":87.9175,"RA_OF_ASC_NODE":6.6379,"ARG_OF_PERICENTER":102.2093,"MEAN_ANOMALY":257.9243,"EPHEMERIS_TYPE":0,"CLASSIFICATION_TYPE":"U","NORAD_CAT_ID":55153,"ELEMENT_SET_NO":999,"REV_AT_EPOCH":14901,"BSTAR":-9.070474e-6,"MEAN_MOTION_DOT":9.0e-8,"MEAN_MOTION_DDOT":0},{"OBJECT_NAME":"ONEWEB-0598","OBJECT_ID":"2023-004Q","EPOCH":"2026-01-11T03:23:45.237984","MEAN_MOTION":13.11417946,"ECCENTRICITY":0.00011743,"INCLINATION":87.8827,"RA_OF_ASC_NODE":52.3398,"ARG_OF_PERICENTER":103.3506,"MEAN_ANOMALY":256.7753,"EPHEMERIS_TYPE":0,"CLASSIFICATION_TYPE":"U","NORAD_CAT_ID":55154,"ELEMENT_SET_NO":999,"REV_AT_EPOCH":14531,"BSTAR":-0.001432267,"MEAN_MOTION_DOT":-4.95e-6,"MEAN_MOTION_DDOT":0}]
