ONEWEB-0712             
1 54680U 22166AQ  26011.12629641  .00000161  00000+0  38773-3 0  9999
2 54680  87.9036 260.0438 0001660  57.0529 303.0761 13.16594471151392
ONEWEB-0714             
1 54681U 22166AR  26011.17967548  .00000011  00000+0 -43588-5 0  9993
2 54681  87.9220 275.3029 0001774  70.8845 289.2481 13.21827733150796
ONEWEB-0532             
1 55140U 23004A   26011.30109866 -.00000055  00000+0 -17494-3 0  9996
2 55140  87.9099  37.0451 0002054 103.3309 256.8052 13.17650012146925
ONEWEB-0533             
1 55141U 23004B   26011.25636973  .00000240  00000+0  63127-3 0  9993
2 55141  87.8929  21.8272 0001930  87.5042 272.6308 13.12441013147473
ONEWEB-0541             
1 55142U 23004C   26011.16355068  .00000417  00000+0  11400-2 0  9999
2 55142  87.8834  52.3101 0001730 101.5321 258.6001 13.11418922145366
ONEWEB-0543             
1 55143U 23004D   26011.02359066 -.00000048  00000+0 -15380-3 0  9991
2 55143  87.9163   6.6945 0001700  77.4824 282.6498 13.18684071148982
ONEWEB-0544             
1 55144U 23004E   26011.24463187 -.00000004  00000+0 -42607-4 0  9991
2 55144  87.9170   6.6428 0001520  87.5311 272.5996 13.18686758149010
ONEWEB-0560             
1 55145U 23004F   26011.23802976  .00000013  00000+0 -17084-6 0  9996
2 55145  87.9175   6.6323 0001539  84.9186 275.2122 13.18685030149025
ONEWEB-0565             
1 55146U 23004G   26011.23142892  .00000105  00000+0  23339-3 0  9999
2 55146  87.9164   6.6768 0001467 102.3266 257.8030 13.18685497149011
ONEWEB-0567             
1 55147U 23004H   26011.22482910  .00000031  00000+0  45807-4 0  9990
2 55147  87.9172   6.6474 0001407  94.1414 265.9879 13.18685532149013
ONEWEB-0569             
1 55148U 23004J   26011.31081848  .00000329  00000+0  86593-3 0  9992
2 55148  87.9004 351.3854 0000814  71.5642 288.5575 13.13469604149584
ONEWEB-0570             
1 55149U 23004K   26011.21493531  .00000014  00000+0  21586-5 0  9992
2 55149  87.9169   6.6488 0001977 102.3064 257.8290 13.18687261149008
ONEWEB-0571             
1 55150U 23004L   26011.05659266 -.00000013  00000+0 -65819-4 0  9992
2 55150  87.9170   6.6793 0000874 129.6841 230.4368 13.18686270148990
ONEWEB-0572             
1 55151U 23004M   26011.33147081 -.00000001  00000+0 -35967-4 0  9999
2 55151  87.9090  37.0471 0001673  99.7027 260.4293 13.17650047146826
ONEWEB-0573             
1 55152U 23004N   26011.27761421  .00000139  00000+0  32096-3 0  9992
2 55152  87.9164   6.6385 0001582 115.9627 244.1668 13.18686870149014
ONEWEB-0588             
1 55153U 23004P   26011.27101406  .00000009  00000+0 -90705-5 0  9994
2 55153  87.9175   6.6379 0001821 102.2093 257.9243 13.18685807149012
ONEWEB-0598             
1 55154U 23004Q   26011.14149581 -.00000495  00000+0 -14323-2 0  9996
2 55154  87.8827  52.3398 0001174 103.3506 256.7753 13.11417946145319
